{
  "type": "FeatureCollection",
  "features": [
    {
      "type": "Feature",
      "properties": {
        "norad_id": 37238,
        "name": "INTELSAT 17 (IS-17)",
        "group": "intelsat",
        "lat": 0.002817742468161149,
        "lon": 111.25885670133854,
        "alt_km": 35797.381359486884,
        "timestamp": "2025-12-25T20:42:38.354916+00:00",
        "meta_object_name": "INTELSAT 17 (IS-17)",
        "meta_object_id": "2010-065B",
        "meta_epoch": "2025-12-24T23:41:10.238784",
        "meta_mean_motion": 1.00271402,
        "meta_eccentricity": 0.00026786,
        "meta_inclination": 0.0089,
        "meta_ra_of_asc_node": 124.505,
        "meta_arg_of_pericenter": 159.0202,
        "meta_mean_anomaly": 231.5148,
        "meta_ephemeris_type": 0,
        "meta_classification_type": "U",
        "meta_norad_cat_id": 37238,
        "meta_element_set_no": 999,
        "meta_rev_at_epoch": 5150,
        "meta_bstar": 0,
        "meta_mean_motion_dot": 2e-07,
        "meta_mean_motion_ddot": 0,
        "tle_line1": "1 37238U 10065B   25358.98692406  .00000020  00000+0  00000+0 0  9992",
        "tle_line2": "2 37238   0.0089 124.5050 0002678 159.0202 231.5148  1.00271402 51503"
      },
      "geometry": {
        "type": "Point",
        "coordinates": [
          111.25885670133854,
          0.002817742468161149
        ]
      }
    },
    {
      "type": "Feature",
      "properties": {
        "norad_id": 37392,
        "name": "INTELSAT 28 (IS-28)",
        "group": "intelsat",
        "lat": -1.2852163906763163,
        "lon": 13.613931230981812,
        "alt_km": 35789.3838208072,
        "timestamp": "2025-12-25T20:42:38.354928+00:00",
        "meta_object_name": "INTELSAT 28 (IS-28)",
        "meta_object_id": "2011-016A",
        "meta_epoch": "2025-12-24T23:13:12.915840",
        "meta_mean_motion": 1.00272029,
        "meta_eccentricity": 0.00037347,
        "meta_inclination": 1.3543,
        "meta_ra_of_asc_node": 84.9231,
        "meta_arg_of_pericenter": 187.1936,
        "meta_mean_anomaly": 138.2165,
        "meta_ephemeris_type": 0,
        "meta_classification_type": "U",
        "meta_norad_cat_id": 37392,
        "meta_element_set_no": 999,
        "meta_rev_at_epoch": 5153,
        "meta_bstar": 0,
        "meta_mean_motion_dot": -2.04e-06,
        "meta_mean_motion_ddot": 0,
        "tle_line1": "1 37392U 11016A   25358.96751060 -.00000204  00000+0  00000+0 0  9995",
        "tle_line2": "2 37392   1.3543  84.9231 0003734 187.1936 138.2165  1.00272029 51534"
      },
      "geometry": {
        "type": "Point",
        "coordinates": [
          13.613931230981812,
          -1.2852163906763163
        ]
      }
    },
    {
      "type": "Feature",
      "properties": {
        "norad_id": 37834,
        "name": "INTELSAT 18 (IS-18)",
        "group": "intelsat",
        "lat": -0.02188837003524828,
        "lon": -134.75230935361986,
        "alt_km": 35782.60057909121,
        "timestamp": "2025-12-25T20:42:38.354939+00:00",
        "meta_object_name": "INTELSAT 18 (IS-18)",
        "meta_object_id": "2011-056A",
        "meta_epoch": "2025-12-25T03:39:02.456064",
        "meta_mean_motion": 1.00271705,
        "meta_eccentricity": 0.00018559,
        "meta_inclination": 0.0207,
        "meta_ra_of_asc_node": 291.1942,
        "meta_arg_of_pericenter": 358.061,
        "meta_mean_anomaly": 39.4181,
        "meta_ephemeris_type": 0,
        "meta_classification_type": "U",
        "meta_norad_cat_id": 37834,
        "meta_element_set_no": 999,
        "meta_rev_at_epoch": 5206,
        "meta_bstar": 0,
        "meta_mean_motion_dot": 7.4e-07,
        "meta_mean_motion_ddot": 0,
        "tle_line1": "1 37834U 11056A   25359.15211176  .00000074  00000+0  00000+0 0  9995",
        "tle_line2": "2 37834   0.0207 291.1942 0001855 358.0610  39.4181  1.00271705 52068"
      },
      "geometry": {
        "type": "Point",
        "coordinates": [
          -134.75230935361986,
          -0.02188837003524828
        ]
      }
    },
    {
      "type": "Feature",
      "properties": {
        "norad_id": 38098,
        "name": "INTELSAT 22 (IS-22)",
        "group": "intelsat",
        "lat": 0.04670226617834147,
        "lon": 117.35233305160384,
        "alt_km": 35794.61042996861,
        "timestamp": "2025-12-25T20:42:38.354951+00:00",
        "meta_object_name": "INTELSAT 22 (IS-22)",
        "meta_object_id": "2012-011A",
        "meta_epoch": "2025-12-25T01:25:30.246240",
        "meta_mean_motion": 1.00270524,
        "meta_eccentricity": 0.00019371,
        "meta_inclination": 0.0297,
        "meta_ra_of_asc_node": 47.6091,
        "meta_arg_of_pericenter": 249.4587,
        "meta_mean_anomaly": 250.2191,
        "meta_ephemeris_type": 0,
        "meta_classification_type": "U",
        "meta_norad_cat_id": 38098,
        "meta_element_set_no": 999,
        "meta_rev_at_epoch": 544,
        "meta_bstar": 0,
        "meta_mean_motion_dot": 0,
        "meta_mean_motion_ddot": 0,
        "tle_line1": "1 38098U 12011A   25359.05937785  .00000000  00000+0  00000+0 0  9999",
        "tle_line2": "2 38098   0.0297  47.6091 0001937 249.4587 250.2191  1.00270524  5448"
      },
      "geometry": {
        "type": "Point",
        "coordinates": [
          117.35233305160384,
          0.04670226617834147
        ]
      }
    },
    {
      "type": "Feature",
      "properties": {
        "norad_id": 38356,
        "name": "INTELSAT 19 (IS-19)",
        "group": "intelsat",
        "lat": -0.01776279556862606,
        "lon": -148.7517278226993,
        "alt_km": 35779.70597750354,
        "timestamp": "2025-12-25T20:42:38.354963+00:00",
        "meta_object_name": "INTELSAT 19 (IS-19)",
        "meta_object_id": "2012-030A",
        "meta_epoch": "2025-12-25T04:09:50.825952",
        "meta_mean_motion": 1.00272047,
        "meta_eccentricity": 0.00029404,
        "meta_inclination": 0.0117,
        "meta_ra_of_asc_node": 329.2864,
        "meta_arg_of_pericenter": 301.5405,
        "meta_mean_anomaly": 51.579,
        "meta_ephemeris_type": 0,
        "meta_classification_type": "U",
        "meta_norad_cat_id": 38356,
        "meta_element_set_no": 999,
        "meta_rev_at_epoch": 4870,
        "meta_bstar": 0,
        "meta_mean_motion_dot": -3.5e-07,
        "meta_mean_motion_ddot": 0,
        "tle_line1": "1 38356U 12030A   25359.17350493 -.00000035  00000+0  00000+0 0  9994",
        "tle_line2": "2 38356   0.0117 329.2864 0002940 301.5405  51.5790  1.00272047 48702"
      },
      "geometry": {
        "type": "Point",
        "coordinates": [
          -148.7517278226993,
          -0.01776279556862606
        ]
      }
    },
    {
      "type": "Feature",
      "properties": {
        "norad_id": 38740,
        "name": "INTELSAT 20 (IS-20)",
        "group": "intelsat",
        "lat": 0.025948445778458545,
        "lon": 113.75120991846697,
        "alt_km": 35782.36626810051,
        "timestamp": "2025-12-25T20:42:38.354975+00:00",
        "meta_object_name": "INTELSAT 20 (IS-20)",
        "meta_object_id": "2012-043A",
        "meta_epoch": "2025-12-24T23:41:40.191072",
        "meta_mean_motion": 1.00274574,
        "meta_eccentricity": 0.00024069,
        "meta_inclination": 0.0114,
        "meta_ra_of_asc_node": 58.8187,
        "meta_arg_of_pericenter": 128.2176,
        "meta_mean_anomaly": 330.6334,
        "meta_ephemeris_type": 0,
        "meta_classification_type": "U",
        "meta_norad_cat_id": 38740,
        "meta_element_set_no": 999,
        "meta_rev_at_epoch": 4900,
        "meta_bstar": 0,
        "meta_mean_motion_dot": -4e-08,
        "meta_mean_motion_ddot": 0,
        "tle_line1": "1 38740U 12043A   25358.98727073 -.00000004  00000+0  00000+0 0  9991",
        "tle_line2": "2 38740   0.0114  58.8187 0002406 128.2176 330.6334  1.00274574 49001"
      },
      "geometry": {
        "type": "Point",
        "coordinates": [
          113.75120991846697,
          0.025948445778458545
        ]
      }
    },
    {
      "type": "Feature",
      "properties": {
        "norad_id": 38749,
        "name": "INTELSAT 21 (IS-21)",
        "group": "intelsat",
        "lat": 0.001912031613054335,
        "lon": -12.695870213912169,
        "alt_km": 35785.05635256866,
        "timestamp": "2025-12-25T20:42:38.354987+00:00",
        "meta_object_name": "INTELSAT 21 (IS-21)",
        "meta_object_id": "2012-045A",
        "meta_epoch": "2025-12-24T21:23:00.970080",
        "meta_mean_motion": 1.00272669,
        "meta_eccentricity": 0.0001677,
        "meta_inclination": 0.0114,
        "meta_ra_of_asc_node": 311.8484,
        "meta_arg_of_pericenter": 312.5149,
        "meta_mean_anomaly": 92.0621,
        "meta_ephemeris_type": 0,
        "meta_classification_type": "U",
        "meta_norad_cat_id": 38749,
        "meta_element_set_no": 999,
        "meta_rev_at_epoch": 4877,
        "meta_bstar": 0,
        "meta_mean_motion_dot": -2.64e-06,
        "meta_mean_motion_ddot": 0,
        "tle_line1": "1 38749U 12045A   25358.89098345 -.00000264  00000+0  00000+0 0  9993",
        "tle_line2": "2 38749   0.0114 311.8484 0001677 312.5149  92.0621  1.00272669 48773"
      },
      "geometry": {
        "type": "Point",
        "coordinates": [
          -12.695870213912169,
          0.001912031613054335
        ]
      }
    }
  ]
}